# From MPEC 2022-WQ9
P/2022 R5 (PANSTARRS),e,15.2924,115.0435,240.5440,3.069830,0.1832452,0.19476033,198.3665,05/13.0/2025,2000,g 16.0,4.0
# From MPEC 2025-J72
C/2022 R6 (PANSTARRS),h,08/26.1384/2025,57.0190,150.7858,319.9100,1.005003,6.565584,2000,5.0,4.0
# From MPEC 2023-HD1
P/2022 S1 (PANSTARRS),e,34.5676,136.0904,262.8448,6.408890,0.0607477,0.50765842,60.6223,05/13.0/2025,2000,g 15.1,4.0
# From MPEC 2022-VC5
C/2022 S3 (PANSTARRS),h,01/21.6363/2023,78.4864,157.2561,267.9845,1.000387,0.838709,2000,17.0,4.0
# From MPEC 2024-PC5
C/2022 S4 (Lemmon),e,101.2163,220.1782,268.5619,1402,0.0000188,0.99803056,0.0000,07/18.7787/2024,2000,g  8.0,4.0
# From MPEC 2023-HD1
C/2022 S5 (PANSTARRS),e,136.5135,214.8650,232.8015,20.51764,0.0106051,0.89384222,9.5152,05/13.0/2025,2000,g 16.3,4.0
# From MPEC 2024-O39
C/2022 T1 (Lemmon),h,02/17.4394/2024,22.5424,236.9161,324.2937,1.000348,3.444377,2000,9.0,4.0
# From MPEC 2025-J72
C/2022 U1 (Leonard),h,03/26.0775/2024,128.1482,72.5276,78.6114,1.000159,4.202256,2000,8.5,4.0
# From MPEC 2023-VM5
C/2022 U2 (ATLAS),e,48.2491,304.4079,148.0038,98.19031,0.0010130,0.98646011,0.0000,01/14.2730/2023,2000,g 16.0,4.0
# From MPC182880
C/2022 U3 (Bok),h,07/28.6633/2024,33.6618,272.7883,189.1313,1.000287,4.826752,2000,7.5,4.0
# From MPEC 2023-W26
C/2022 U4 (Bok),e,52.0519,132.9161,88.9874,2874,0.0000064,0.99899195,0.0000,08/03.6393/2023,2000,g 10.5,4.0
# From MPEC 2024-H50
C/2022 V2 (Lemmon),e,98.9018,332.8567,168.9538,36.65357,0.0044415,0.94368546,2.4790,05/13.0/2025,2000,g 12.0,4.0
# From MPEC 2023-CD7
P/2022 W1 (Rankin),e,13.4642,38.8284,17.9260,6.975206,0.0535018,0.51650279,51.8892,05/13.0/2025,2000,g 12.5,4.0
# From MPEC 2024-EF7
C/2022 W2 (ATLAS),e,63.5035,320.4378,123.3119,343.0595,0.0001551,0.99089169,0.0000,03/08.7486/2023,2000,g 11.5,4.0
# From MPEC 2024-C04
C/2022 W3 (Leonard),e,103.5802,132.3004,116.5142,278.1241,0.0002125,0.99497702,0.0000,06/22.8155/2023,2000,g 13.0,4.0
# From MPEC 2023-M14
C/2022 Y1 (Hogan),e,18.8557,285.8780,174.8750,12.61270,0.0220035,0.76529150,19.7445,05/13.0/2025,2000,g  9.0,4.0
# From MPEC 2023-TM6
C/2022 Y2 (Lemmon),e,165.8897,216.3655,105.4639,19.71843,0.0112563,0.87109200,8.8091,05/13.0/2025,2000,g 13.5,4.0
# From MPEC 2024-GJ3
C/2023 A1 (Leonard),e,94.7408,318.2690,159.2614,221.2455,0.0002995,0.99170190,0.0000,03/18.5990/2023,2000,g 14.5,4.0
# From MPEC 2023-J95
C/2023 A2 (SWAN),e,94.7065,94.5075,142.4987,409.2657,0.0001190,0.99769052,0.0000,01/20.3658/2023,2000,g 13.5,4.0
# From MPEC 2025-J72
C/2023 A3 (Tsuchinshan-ATLAS),h,09/27.7431/2024,139.1113,21.5708,308.5048,1.000117,0.391494,2000,6.5,3.2
# From MPEC 2024-F34
P/2023 B1 (PANSTARRS),e,14.5884,78.5599,81.6945,7.065348,0.0524812,0.13088875,38.8594,05/13.0/2025,2000,g  5.5,4.0
# From MPEC 2023-XP6
C/2023 B2 (ATLAS),e,40.7671,218.0935,317.3631,595.9946,0.0000677,0.99707920,0.0000,03/10.5934/2023,2000,g 14.5,4.0
# From MPEC 2023-F81
P/2023 B3 (PANSTARRS),e,9.1567,153.9871,240.3733,4.550157,0.1015464,0.12241436,173.6474,05/13.0/2025,2000,g 10.5,4.0
# From MPEC 2025-J72
C/2023 C2 (ATLAS),e,48.3216,301.0044,357.4481,2491,0.0000079,0.99904925,0.0000,11/16.7899/2024,2000,g  7.0,4.0
# From MPEC 2024-D33
C/2023 E1 (ATLAS),e,38.2809,164.5177,105.9532,19.26083,0.0116598,0.94665226,7.9534,05/13.0/2025,2000,g 15.5,4.0
# From MPEC 2023-N01
C/2023 F1 (PANSTARRS),e,131.6936,25.3077,216.7335,246.6464,0.0002544,0.99306638,0.0000,06/28.1210/2023,2000,g 16.0,4.0
# From MPEC 2025-J72
C/2023 F3 (ATLAS),h,02/02.6267/2025,145.9636,109.4650,265.5322,1.003475,5.190778,2000,6.0,4.0
# From MPEC 2025-J72
C/2023 H1 (PANSTARRS),e,21.7826,292.6467,333.7536,760.9203,0.0000470,0.99415495,0.0000,11/28.6506/2024,2000,g  8.5,4.0
# From MPEC 2024-GJ3
C/2023 H2 (Lemmon),e,113.7485,217.0692,150.6838,247.0120,0.0002539,0.99637590,0.0000,10/29.1614/2023,2000,g 14.0,4.0
# From MPEC 2023-R20
C/2023 H3 (PANSTARRS),e,2.4889,55.0912,193.2698,13.61621,0.0196164,0.61575740,8.8197,05/13.0/2025,2000,g 10.0,4.0
# From MPEC 2023-SQ0
A/2023 H4,e,76.5705,230.8264,65.0184,142.6129,0.0005787,0.98510653,0.0000,08/08.7357/2023,2000,g 18.0,2.0
# From MPEC 2025-J72
C/2023 H5 (Lemmon),h,06/30.2648/2025,97.8554,159.4785,60.0976,1.000464,4.312587,2000,7.0,4.0
# From MPEC 2024-UA9
P/2023 JN16 (Lemmon),e,3.7023,11.8742,353.1882,2.695691,0.2226891,0.14688263,29.6808,05/13.0/2025,2000,g 14.0,4.0
# From MPEC 2024-GJ3
C/2023 K1 (ATLAS),e,137.9976,223.6982,337.4211,630.4151,0.0000623,0.99676603,0.0000,09/07.5948/2023,2000,g 13.0,4.0
# From MPEC 2023-N01
P/2023 M1 (PANSTARRS),e,12.2890,216.8598,79.6985,6.841574,0.0550770,0.58685088,28.4011,05/13.0/2025,2000,g 13.5,4.0
# From MPEC 2024-TD8
P/2023 M2 (PANSTARRS),e,19.7279,83.2495,243.4406,5.579313,0.0747882,0.37002249,49.0322,05/13.0/2025,2000,g 12.5,4.0
# From MPEC 2024-TP3
P/2023 M4 (ATLAS),e,7.5920,296.2850,320.5308,5.446746,0.0775351,0.27893214,87.2472,05/13.0/2025,2000,g  7.5,4.0
# From MPEC 2024-MB8
C/2023 P1 (Nishimura),e,132.4778,66.8325,116.2555,56.47252,0.0023225,0.99602526,0.0000,09/17.6260/2023,2000,g 10.0,4.0
# From MPEC 2025-J72
C/2023 Q1 (PANSTARRS),h,12/01.1300/2024,36.6444,7.1247,84.4178,1.005026,2.575789,2000,10.0,4.0
# From MPEC 2024-N80
C/2023 Q2 (PANSTARRS),e,104.0618,92.6796,171.6936,345.6274,0.0001534,0.99071494,0.0000,06/23.9572/2024,2000,g 11.5,4.0
# From MPEC 2025-J72
C/2023 R1 (PANSTARRS),h,04/13.4933/2026,149.3169,62.5616,144.2747,1.002169,3.569782,2000,6.0,4.0
# From MPEC 2024-L77
C/2023 R2 (PANSTARRS),h,08/12.1570/2024,30.6891,188.9015,337.3119,1.000278,0.905118,2000,10.5,4.0
# From MPEC 2023-UR6
A/2023 R3,e,12.0813,347.3426,86.9382,714.5355,0.0000516,0.99809868,0.0000,12/18.1827/2023,2000,g 20.0,2.0
# From MPEC 2024-YC7
C/2023 RN3 (ATLAS),e,10.3518,207.0651,130.6009,10.16985,0.0303901,0.49064961,25.6344,05/13.0/2025,2000,g  7.5,4.0
# From MPEC 2025-HB3
C/2023 RS61,e,19.9444,347.0192,119.3962,11.89898,0.0240126,0.32778388,328.8324,05/13.0/2025,2000,g  6.8,4.0
# From MPEC 2025-J72
P/2023 S1 (PANSTARRS),e,9.1578,317.2903,180.3044,3.843986,0.1307770,0.31849333,10.1783,05/13.0/2025,2000,g 11.5,4.0
# From MPEC 2023-XP6
C/2023 S2 (ATLAS),e,19.6720,229.4932,78.9231,168.9389,0.0004489,0.99371867,0.0000,10/15.4656/2023,2000,g 15.0,4.0
# From MPEC 2024-P23
C/2023 S3 (Lemmon),e,140.4940,233.8248,281.5368,28.43570,0.0064999,0.97083226,0.0000,01/19.6474/2024,2000,g 16.0,4.0
# From MPEC 2024-BE0
P/2023 T1 (PANSTARRS),e,6.6123,249.5767,202.8611,4.225771,0.1134606,0.33324121,40.2949,05/13.0/2025,2000,g 14.0,4.0
# From MPEC 2024-GJ3
C/2023 T2 (Borisov),e,48.5919,317.5280,111.2136,224.2943,0.0002934,0.99110019,0.0000,12/22.7562/2023,2000,g 14.5,4.0
# From MPEC 2025-J72
C/2023 T3 (Fuls),e,27.2215,246.0017,302.8470,847.6217,0.0000399,0.99581379,0.0000,01/25.3494/2025,2000,g  8.5,4.0
# From MPEC 2024-VB7
C/2023 TD22 (Lemmon),e,170.4899,5.5628,32.5405,48.35134,0.0029315,0.95125843,0.6997,05/13.0/2025,2000,g 12.5,4.0
# From MPEC 2025-J08
C/2023 U1 (Fuls),e,108.1458,305.8047,255.6421,2543,0.0000077,0.99804432,0.0000,10/12.9001/2024,2000,g  8.0,4.0
# From MPEC 2025-J72
C/2023 V1 (Lemmon),h,07/13.0415/2025,102.0139,15.0411,103.3146,1.000351,5.092569,2000,8.5,4.0
# From MPEC 2025-J72
P/2023 V2 (PANSTARRS),e,9.8884,95.4745,330.5211,7.220881,0.0507947,0.57011539,23.5840,05/13.0/2025,2000,g 13.5,4.0
# From MPEC 2024-A43
C/2023 V3 (PANSTARRS),e,40.7016,91.2923,291.8672,12.93451,0.0211875,0.65311332,13.7144,05/13.0/2025,2000,g 11.5,4.0
# From MPEC 2024-UQ8
C/2023 V4 (Camarasa-Duszanowicz),h,05/30.3870/2024,67.1264,66.3268,50.8684,1.001144,1.121883,2000,12.0,4.0
# From MPEC 2024-GJ3
C/2023 V5 (Leonard),h,12/13.9027/2023,73.5540,31.5163,56.9676,1.009418,0.846309,2000,21.5,4.0
# From MPEC 2025-A40
P/2023 V6 (PANSTARRS),e,3.9717,189.6781,192.6207,5.297991,0.0808234,0.17564003,72.0745,05/13.0/2025,2000,g 11.5,4.0
# From MPEC 2024-GJ3
C/2023 X1 (Leonard),e,110.5881,136.9956,321.4677,156.0419,0.0005056,0.99390556,0.0000,10/17.9875/2023,2000,g 13.5,3.2
# From MPEC 2025-J08
C/2023 X2 (Lemmon),h,12/28.1066/2025,76.9840,66.3045,64.7566,1.000189,5.088930,2000,8.5,3.2
# From MPEC 2024-A43
P/2023 X3 (PANSTARRS),e,4.4833,62.0134,40.8625,4.245747,0.1126608,0.28619253,43.4728,05/13.0/2025,2000,g 15.5,4.0
# From MPEC 2025-J72
C/2023 X4 (Hogan),e,11.5937,28.7691,100.5870,9.920768,0.0315418,0.63124466,11.1333,05/13.0/2025,2000,g 12.0,4.0
# From MPEC 2024-DA2
C/2023 X7 (PANSTARRS),h,05/15.1908/2025,69.0821,119.1986,354.3961,1.002696,4.820333,2000,9.0,4.0
# From MPEC 2024-JU4
P/2023 Y1 (Gibbs),e,6.3840,78.8560,51.4756,3.750250,0.1357106,0.44535118,71.9394,05/13.0/2025,2000,g 17.0,4.0
# From MPEC 2025-A40
P/2023 Y2 (Gibbs),e,6.9927,79.2288,16.8966,3.747143,0.1358794,0.39227995,87.2219,05/13.0/2025,2000,g 15.5,4.0
# From MPEC 2025-J72
C/2024 A1 (ATLAS),h,06/13.7139/2025,94.4583,112.1364,353.3123,1.002219,3.875288,2000,7.0,4.0
# From MPC182881
C/2024 A2 (ATLAS),e,119.1153,78.1659,295.5025,32.32936,0.0053618,0.94186195,2.0330,05/13.0/2025,2000,g 12.5,4.0
# From MPEC 2025-J72
C/2024 B1 (Lemmon),h,10/07.7158/2024,70.9031,79.1884,66.2158,1.001001,1.633788,2000,13.0,4.0
# From MPEC 2025-A40
C/2024 B2 (Lemmon),e,99.8653,294.3841,130.3414,2243,0.0000093,0.99818157,0.0000,10/05.9348/2023,2000,g 11.5,4.0
# From MPEC 2025-J72
C/2024 C1 (PANSTARRS),e,14.2269,83.8096,94.4864,10.58034,0.0286388,0.58291910,7.3018,05/13.0/2025,2000,g 11.5,4.0
# From MPEC 2024-JU4
C/2024 C2 (PANSTARRS),e,27.2844,66.4449,87.5668,16.22397,0.0150823,0.44579810,0.9494,05/13.0/2025,2000,g  6.0,4.0
# From MPEC 2025-HB5
C/2024 C3 (PANSTARRS),e,22.4557,359.7067,159.6821,11.66589,0.0247359,0.42456724,13.6387,05/13.0/2025,2000,g  9.0,4.0
# From MPEC 2024-Q20
C/2024 C4 (ATLAS),e,79.2834,220.6736,321.5014,83.51807,0.0012913,0.98239162,0.0000,01/30.1908/2024,2000,g 14.5,4.0
# From MPEC 2025-HB9
C/2024 D1 (Lemmon),e,132.4504,179.6631,125.7717,8668,0.0000012,0.99922779,0.0000,12/03.3729/2027,2000,g  7.3,4.0
# From MPEC 2025-J72
C/2024 E1 (Wierzchos),h,01/20.7626/2026,75.2387,108.0811,243.6353,1.000060,0.565937,2000,7.0,4.0
# From MPEC 2024-JU4
